STARLINK-11651 [DTC]    
1 63664U 25085A   25147.58335648  .00072693  00000+0  41774-3 0  9998
2 63664  42.9967 205.2719 0001649 281.9324 279.0084 15.77817855  5255
STARLINK-11672 [DTC]    
1 63665U 25085B   25147.58335648  .00036712  00000+0  21307-3 0  9991
2 63665  42.9963 205.2024 0001635 271.9362 316.7501 15.77839712  5852
STARLINK-11664 [DTC]    
1 63666U 25085C   25147.58335648  .00030953  00000+0  18023-3 0  9994
2 63666  42.9960 205.1341 0001455 287.8787 328.5632 15.77838365  5251
STARLINK-11666 [DTC]    
1 63667U 25085D   25147.58335648  .00048772  00000+0  28183-3 0  9991
2 63667  42.9963 205.0667 0001393 267.6993  16.4973 15.77831996  5154
STARLINK-11663 [DTC]    
1 63668U 25085E   25147.58335648  .00029426  00000+0  17147-3 0  9995
2 63668  42.9967 204.9981 0001492 281.1844  30.7559 15.77843306  5250
STARLINK-11595 [DTC]    
1 63669U 25085F   25147.58335648  .00044136  00000+0  25542-3 0  9999
2 63669  42.9971 204.9294 0001445 278.7415  60.9545 15.77834373  5903
STARLINK-11599 [DTC]    
1 63670U 25085G   25147.58335648  .00026833  00000+0  15669-3 0  9994
2 63670  42.9967 204.8598 0001572 282.6622  84.7820 15.77839358  5257
STARLINK-11603 [DTC]    
1 63671U 25085H   25147.58335648  .00026214  00000+0  15318-3 0  9999
2 63671  42.9969 204.7904 0001519 265.4847 129.7189 15.77835261  5256
STARLINK-11644 [DTC]    
1 63672U 25085J   25147.58335648  .00042727  00000+0  24745-3 0  9991
2 63672  42.9970 204.7210 0001625 275.5893 147.3596 15.77829697  5254
STARLINK-11634 [DTC]    
1 63673U 25085K   25147.58335648  .00032842  00000+0  19102-3 0  9990
2 63673  42.9970 204.6529 0001596 275.3251 175.3736 15.77836938  5253
STARLINK-11656 [DTC]    
1 63674U 25085L   25147.58335648  .00031271  00000+0  18206-3 0  9990
2 63674  42.9974 204.5851 0001794 279.1731 199.2793 15.77836091  5258
STARLINK-11655 [DTC]    
1 63675U 25085M   25147.58335648  .00023835  00000+0  13957-3 0  9996
2 63675  42.9974 204.5165 0001545 274.4073 231.7984 15.77836537  5257
STARLINK-11661 [DTC]    
1 63676U 25085N   25147.58335648  .00051089  00000+0  29498-3 0  9996
2 63676  42.9974 204.4472 0001674 281.2865 252.6584 15.77833419  5902
STARLINK-33816          
1 63677U 25085P   25147.58335648  .00062372  00000+0  14899-2 0  9992
2 63677  42.9990 208.9134 0001454 280.8102 240.9097 15.40665330  5274
STARLINK-33861          
1 63678U 25085Q   25147.58335648  .00066138  00000+0  15783-2 0  9990
2 63678  42.9992 208.8839 0001464 276.6171 257.5410 15.40671904  5152
STARLINK-33850          
1 63679U 25085R   25147.58335648  .00046078  00000+0  11047-2 0  9991
2 63679  42.9990 208.8527 0001377 273.2297 273.3743 15.40671367  5158
STARLINK-33887          
1 63680U 25085S   25147.58335648  .00056093  00000+0  13415-2 0  9992
2 63680  42.9990 208.8235 0001526 274.6585 284.3770 15.40670665  5227
STARLINK-33886          
1 63681U 25085T   25147.58335648  .00046427  00000+0  11128-2 0  9992
2 63681  42.9991 208.7930 0001517 270.7844 300.6970 15.40676249  5155
STARLINK-33840          
1 63682U 25085U   25147.58335648  .00021469  00000+0  51990-3 0  9994
2 63682  42.9992 208.7315 0001570 288.1428 308.2192 15.40691748  5155
STARLINK-33851          
1 63683U 25085V   25147.58335648  .00046680  00000+0  11190-2 0  9994
2 63683  42.9990 208.7620 0001417 275.9819 307.9495 15.40670377  5158
STARLINK-33853          
1 63684U 25085W   25147.58335648  .00046756  00000+0  11207-2 0  9998
2 63684  42.9989 208.7021 0001442 280.8775 327.9339 15.40673085  5154
STARLINK-33847          
1 63685U 25085X   25147.58335648  .00057125  00000+0  13660-2 0  9996
2 63685  42.9987 208.6416 0001457 279.9811 353.7047 15.40667859  5162
STARLINK-33880          
1 63686U 25085Y   25147.58335648  .00055666  00000+0  13317-2 0  9994
2 63686  42.9988 208.6713 0001548 282.5261 338.7222 15.40664347  5273
HULIANWANG DIGUI A      
1 63687U 25086A   25146.90033951  .00000067  00000+0  11790-3 0  9992
2 63687  86.5101  83.2435 0002527  92.1494 267.9930 13.25980491  3745
HULIANWANG DIGUI B      
1 63688U 25086B   25144.23156872 -.00373594  00000+0 -80582+0 0  9996
2 63688  86.5004  84.1276 0002141 150.0617 325.6441 13.31913176  3375
HULIANWANG DIGUI C      
1 63689U 25086C   25146.54367445  .00000058  00000+0  92608-4 0  9990
2 63689  86.5023  83.3103 0001671  87.5796 272.5532 13.29286994  3689
HULIANWANG DIGUI D      
1 63690U 25086D   25143.94069964 -.01051470  00000+0 -23251+1 0  9999
2 63690  86.5100  84.2162 0001815  85.1137  28.1061 13.31363921  3338
HULIANWANG DIGUI E      
1 63691U 25086E   25144.76133660 -.00678202  00000+0 -15274+1 0  9999
2 63691  86.5112  83.9426 0002652 144.8212 277.0315 13.29774131  3443
HULIANWANG DIGUI F      
1 63692U 25086F   25144.78301910 -.00977912  00000+0 -22337+1 0  9995
2 63692  86.5035  83.9223 0001811  89.1663   9.4460 13.28960960  3444
HULIANWANG DIGUI G      
1 63693U 25086G   25144.81916342  .00000082  00000+0  14201-3 0  9998
2 63693  86.4976  83.9166 0005620 127.6471 232.5177 13.30543670  3454
HULIANWANG DIGUI H      
1 63694U 25086H   25145.89841212  .00000055  00000+0  90725-4 0  9997
2 63694  86.5030  83.5502 0001494  58.2922 301.8359 13.26998375  3590
HULIANWANG DIGUI J      
1 63695U 25086J   25145.61044056  .00000072  00000+0  12663-3 0  9992
2 63695  86.4986  83.6517 0001451  90.3220 269.8082 13.27399209  3552
HULIANWANG DIGUI K      
1 63696U 25086K   25147.94248011  .00000074  00000+0  13793-3 0  9995
2 63696  86.5016  82.8671 0001491  93.4261 266.7044 13.24999826  3869
STARLINK-33894          
1 63697U 25087A   25147.58335648 -.01464825  00000+0 -38810-1 0  9996
2 63697  53.1596 114.4518 0000999  88.6735 197.7446 15.40857639  4572
STARLINK-33922          
1 63698U 25087B   25147.58335648 -.01674741  00000+0 -37821-1 0  9998
2 63698  53.1599 114.3864 0000791  87.8330 230.5523 15.45983495  4433
STARLINK-33919          
1 63699U 25087C   25147.58335648 -.00038845  00000+0 -69332-3 0  9991
2 63699  53.1598 114.3714 0000896  86.0581 239.9880 15.49330607  4571
STARLINK-33908          
1 63700U 25087D   25147.58335648 -.00045636  00000+0 -81659-3 0  9996
2 63700  53.1599 114.3677 0001027  85.9068 242.0566 15.49332545  4522
STARLINK-33950          
1 63701U 25087E   25147.58335648 -.01673253  00000+0 -42164-1 0  9996
2 63701  53.1598 114.4071 0000831  87.7029 220.3146 15.42784781  4608
STARLINK-33939          
1 63702U 25087F   25147.58335648 -.01674186  00000+0 -35460-1 0  9994
2 63702  53.1599 114.3626 0000844  73.6901 256.9187 15.47818794  4430
STARLINK-33868          
1 63703U 25087G   25147.58335648 -.00044895  00000+0 -80315-3 0  9993
2 63703  53.1599 114.3559 0001092  81.6462 252.0680 15.49331071  4595
STARLINK-33937          
1 63704U 25087H   25147.58335648 -.00048339  00000+0 -86578-3 0  9998
2 63704  53.1600 114.3484 0001072  87.0888 250.4622 15.49330832  4307
STARLINK-33848          
1 63705U 25087J   25147.58335648 -.00049793  00000+0 -89208-3 0  9997
2 63705  53.1600 114.3514 0001061  86.5653 249.0650 15.49335756  4590
STARLINK-33995          
1 63706U 25087K   25147.58335648 -.00042539  00000+0 -76039-3 0  9997
2 63706  53.1599 114.3433 0000947  84.2723 255.1918 15.49330426  4609
STARLINK-33982          
1 63707U 25087L   25147.58335648 -.00040297  00000+0 -71970-3 0  9996
2 63707  53.1600 114.3401 0000948  85.2906 256.0915 15.49329660  4608
STARLINK-33915          
1 63708U 25087M   25147.58335648 -.00044246  00000+0 -79147-3 0  9999
2 63708  53.1601 114.3353 0000991  78.9292 264.3675 15.49327866  4523
STARLINK-33862          
1 63709U 25087N   25147.58335648 -.00045924  00000+0 -82186-3 0  9991
2 63709  53.1601 114.3325 0001053  82.0641 263.1527 15.49331329  4574
STARLINK-33920          
1 63710U 25087P   25147.58335648 -.01674914  00000+0 -41251-1 0  9997
2 63710  53.1599 114.3631 0001068  81.9534 247.5752 15.43459379  4102
STARLINK-33580          
1 63711U 25087Q   25147.58335648 -.01692518  00000+0 -35042-1 0  9999
2 63711  53.1600 114.3238 0000794  85.7191 262.9534 15.48501435  4447
STARLINK-33783          
1 63712U 25087R   25147.58335648 -.00033407  00000+0 -59487-3 0  9996
2 63712  53.1600 114.3198 0000949  82.2071 268.7605 15.49323038  4618
STARLINK-33773          
1 63713U 25087S   25147.58335648 -.00042444  00000+0 -75863-3 0  9994
2 63713  53.1601 114.3157 0001117  79.8672 273.0120 15.49330770  4603
STARLINK-33745          
1 63714U 25087T   25147.58335648 -.00047203  00000+0 -84510-3 0  9992
2 63714  53.1601 114.3110 0001002  90.7591 264.0393 15.49331959  4611
STARLINK-33728          
1 63715U 25087U   25147.58335648 -.00046208  00000+0 -82695-3 0  9999
2 63715  53.1602 114.2750 0000755  88.0902 283.9615 15.49334036  4607
STARLINK-33749          
1 63716U 25087V   25147.58335648 -.00029091  00000+0 -51687-3 0  9998
2 63716  53.1600 114.3079 0000981  83.5564 273.1735 15.49313032  4603
STARLINK-33725          
1 63717U 25087W   25147.58335648 -.00035574  00000+0 -63412-3 0  9991
2 63717  53.1602 114.2787 0000868  82.5858 287.5487 15.49325208  4601
STARLINK-33641          
1 63718U 25087X   25147.58335648 -.00036512  00000+0 -65104-3 0  9995
2 63718  53.1602 114.2980 0000878  85.1138 275.4360 15.49328684  4515
STARLINK-33727          
1 63719U 25087Y   25147.58335648 -.00027612  00000+0 -68274-3 0  9998
2 63719  53.1599 114.3970 0000878  73.7293 237.4242 15.39623682  4619
STARLINK-33757          
1 63720U 25087Z   25147.58335648 -.00041528  00000+0 -74200-3 0  9998
2 63720  53.1602 114.2827 0000821  84.7603 283.4549 15.49331726  4528
STARLINK-33774          
1 63721U 25087AA  25147.58335648 -.01672965  00000+0 -40272-1 0  9995
2 63721  53.1602 114.3156 0000946  79.5362 272.9352 15.44125507  4604
STARLINK-33767          
1 63722U 25087AB  25147.58335648 -.00024526  00000+0 -43406-3 0  9993
2 63722  53.1602 114.3041 0001173  88.5173 270.1111 15.49324046  4619
